0 MARISAT 1
1 08697U 76017A   13281.46784650 -.00000298  00000-0  10000-3 0  4816
2 08697 013.9576 340.9966 0013569 100.1837 259.9733 00.99210482136120
0 MARISAT 1
1 08697U 76017A   13283.48368740 -.00000322  00000-0  10000-3 0  4827
2 08697 013.9566 340.9775 0013329 100.0715 260.0795 00.99210082136144
0 MARISAT 1
1 08697U 76017A   13283.48369549  .00000000  00000-0  10000-3 0  4838
2 08697 013.9577 340.9779 0013004 100.0861 260.0661 00.99206000136149
0 MARISAT 1
1 08697U 76017A   13285.49953754 -.00000330  00000-0  10000-3 0  4835
2 08697 013.9557 340.9578 0013475 099.9891 260.1611 00.99209475136162
0 MARISAT 1
1 08697U 76017A   13286.50746469 -.00000328  00000-0  10000-3 0  4849
2 08697 013.9554 340.9480 0013021 101.0854 259.0561 00.99209070136175
0 MARISAT 1
1 08697U 76017A   13288.52332622 -.00000310  00000-0  10000-3 0  4857
2 08697 013.9545 340.9281 0013161 101.6058 258.5311 00.99208205136199
0 MARISAT 1
1 08697U 76017A   13293.56307960 -.00000200  00000-0  10000-3 0  4863
2 08697 013.9516 340.8782 0012607 101.9925 258.1297 00.99205710136245
